[{"OBJECT_NAME":"TRANSPORTER-10 OBJECT AG","OBJECT_ID":"2024-043AG","EPOCH":"2026-03-09T22:12:45.387648","MEAN_MOTION":15.30759727,"ECCENTRICITY":0.00093005,"INCLINATION":97.5471,"RA_OF_ASC_NODE":205.7101,"ARG_OF_PERICENTER":226.5958,"MEAN_ANOMALY":133.4509,"EPHEMERIS_TYPE":0,"CLASSIFICATION_TYPE":"U","NORAD_CAT_ID":59128,"ELEMENT_SET_NO":999,"REV_AT_EPOCH":11192,"BSTAR":0.00032170115,"MEAN_MOTION_DOT":9.498e-5,"MEAN_MOTION_DDOT":0},{"OBJECT_NAME":"STARLINK-31494","OBJECT_ID":"2024-049H","EPOCH":"2026-03-09T06:19:24.739392","MEAN_MOTION":15.27577403,"ECCENTRICITY":0.00011798,"INCLINATION":43.0015,"RA_OF_ASC_NODE":145.7093,"ARG_OF_PERICENTER":241.1794,"MEAN_ANOMALY":118.8939,"EPHEMERIS_TYPE":0,"CLASSIFICATION_TYPE":"U","NORAD_CAT_ID":59238,"ELEMENT_SET_NO":999,"REV_AT_EPOCH":11234,"BSTAR":-7.2634391e-5,"MEAN_MOTION_DOT":-2.26e-5,"MEAN_MOTION_DDOT":0}]
